NORAD_CAT_ID,OBJECT_NAME,OBJECT_TYPE,EPOCH,MEAN_MOTION,ECCENTRICITY,INCLINATION,RA_OF_ASC_NODE,ARG_OF_PERICENTER,MEAN_ANOMALY,BSTAR,MEAN_MOTION_DOT,MEAN_MOTION_DDOT,TLE_LINE0,TLE_LINE1,TLE_LINE2,SEMIMAJOR_AXIS,PERIOD,APOGEE,PERIGEE,DECAYED
55786.0,STARLINK-5823,PAYLOAD,2023-04-21 19:29:26,15.69922738,0.0003155,70.0012,17.269,270.0206,90.0629,9.5512e-06,9.36e-06,0.0,0 STARLINK-5823,1 55786U 23028AX  23111.81211745  .00000936  00000-0  95512-5 0  9998,2 55786  70.0012  17.2690 0003155 270.0206  90.0629 15.69922738  8375,6737.255,91.724,361.246,356.994,0.0
55786.0,STARLINK-5823,PAYLOAD,2023-04-22 16:53:59,15.69924744,0.0003629,69.9979,14.76,270.1587,89.9193,-1.5144e-05,-2.034e-05,0.0,0 STARLINK-5823,1 55786U 23028AX  23112.70415811 -.00002034  00000-0 -15144-4 0  9992,2 55786  69.9979  14.7600 0003629 270.1587  89.9193 15.69924744  8503,6737.249,91.724,361.559,356.669,0.0
55786.0,STARLINK-5823,PAYLOAD,2023-04-23 02:04:29,15.69927272,0.0003658,69.998,13.6832,274.0307,86.0471,4.4387e-06,3.21e-06,0.0,0 STARLINK-5823,1 55786U 23028AX  23113.08645277  .00000321  00000-0  44387-5 0  9992,2 55786  69.9980  13.6832 0003658 274.0307  86.0471 15.69927272  8567,6737.242,91.724,361.572,356.643,0.0
55786.0,STARLINK-5823,PAYLOAD,2023-04-23 17:22:00,15.69930523,0.0003133,70.0007,11.8952,256.0518,104.0329,9.0706e-06,8.78e-06,0.0,0 STARLINK-5823,1 55786U 23028AX  23113.72361601  .00000878  00000-0  90706-5 0  9992,2 55786  70.0007  11.8952 0003133 256.0518 104.0329 15.69930523  8673,6737.233,91.724,361.209,356.987,0.0
55786.0,STARLINK-5823,PAYLOAD,2023-04-24 04:04:15,15.69947911,0.0003041,70.0008,10.6395,258.3485,101.737,5.3395e-05,6.218e-05,0.0,0 STARLINK-5823,1 55786U 23028AX  23114.16962428  .00006218  00000-0  53395-4 0  9991,2 55786  70.0008  10.6395 0003041 258.3485 101.7370 15.69947911  8734,6737.183,91.723,361.097,356.999,0.0
55786.0,STARLINK-5823,PAYLOAD,2023-04-25 03:00:35,15.69887534,0.0003832,70.001,7.9545,331.4048,28.6937,-6.9357e-05,-8.532e-05,0.0,0 STARLINK-5823,1 55786U 23028AX  23115.12540808 -.00008532  00000-0 -69357-4 0  9990,2 55786  70.0010   7.9545 0003832 331.4048  28.6937 15.69887534  8885,6737.356,91.726,361.803,356.639,0.0
55786.0,STARLINK-5823,PAYLOAD,2023-04-26 01:56:51,15.69921547,0.0002912,70.0025,5.266,280.3622,79.7246,4.5999e-05,5.321e-05,0.0,0 STARLINK-5823,1 55786U 23028AX  23116.08115317  .00005321  00000-0  45999-4 0  9996,2 55786  70.0025   5.2660 0002912 280.3622  79.7246 15.69921547  9040,6737.258,91.724,361.085,357.162,0.0
55786.0,STARLINK-5823,PAYLOAD,2023-04-26 15:42:36,15.69944621,0.0004256,69.9993,3.6538,268.6172,91.4536,0.00010474,0.00012412,0.0,0 STARLINK-5823,1 55786U 23028AX  23116.65459001  .00012412  00000-0  10474-3 0  9998,2 55786  69.9993   3.6538 0004256 268.6172  91.4536 15.69944621  9130,6737.192,91.723,361.925,356.19,0.0
55786.0,STARLINK-5823,PAYLOAD,2023-04-27 16:10:38,15.69938269,0.0003843,70.0012,0.7874,276.3002,83.7756,1.3454e-05,1.406e-05,0.0,0 STARLINK-5823,1 55786U 23028AX  23117.67405480  .00001406  00000-0  13454-4 0  9996,2 55786  70.0012   0.7874 0003843 276.3002  83.7756 15.69938269  9280,6737.211,91.723,361.665,356.487,0.0
55786.0,STARLINK-5823,PAYLOAD,2023-04-28 08:59:54,15.69922614,0.0003553,69.9998,358.8186,270.3402,89.7386,-2.2333e-05,-2.897e-05,0.0,0 STARLINK-5823,1 55786U 23028AX  23118.37494198 -.00002897  00000-0 -22333-4 0  9991,2 55786  69.9998 358.8186 0003553 270.3402  89.7386 15.69922614  9393,6737.255,91.724,361.514,356.727,0.0
55786.0,STARLINK-5823,PAYLOAD,2023-04-29 01:49:11,15.69914397,0.0003577,69.9999,356.8478,280.1761,79.9031,-1.8534e-05,-2.44e-05,0.0,0 STARLINK-5823,1 55786U 23028AX  23119.07582643 -.00002440  00000-0 -18534-4 0  9994,2 55786  69.9999 356.8478 0003577 280.1761  79.9031 15.69914397  9510,6737.279,91.725,361.554,356.734,0.0
55786.0,STARLINK-5823,PAYLOAD,2023-04-29 18:38:27,15.69918527,0.0003601,70.0003,354.8776,275.91,84.1685,9.9126e-06,9.79e-06,0.0,0 STARLINK-5823,1 55786U 23028AX  23119.77670879  .00000979  00000-0  99126-5 0  9990,2 55786  70.0003 354.8776 0003601 275.9100  84.1685 15.69918527  9618,6737.267,91.725,361.558,356.706,0.0
55786.0,STARLINK-5823,PAYLOAD,2023-04-30 02:17:12,15.69932771,0.0003844,69.9996,353.9817,272.9198,87.1558,2.8688e-05,3.239e-05,0.0,0 STARLINK-5823,1 55786U 23028AX  23120.09528562  .00003239  00000-0  28688-4 0  9994,2 55786  69.9996 353.9817 0003844 272.9198  87.1558 15.69932771  9669,6737.226,91.724,361.681,356.502,0.0
55786.0,STARLINK-5823,PAYLOAD,2023-04-30 19:06:30,15.69916906,0.0003733,69.9995,352.009,276.1112,83.9659,-8.0855e-06,-1.185e-05,0.0,0 STARLINK-5823,1 55786U 23028AX  23120.79618133 -.00001185  00000-0 -80855-5 0  9990,2 55786  69.9995 352.0090 0003733 276.1112  83.9659 15.69916906  9770,6737.272,91.725,361.652,356.622,0.0
55786.0,STARLINK-5823,PAYLOAD,2023-05-01 01:13:30,15.69919213,0.0003283,69.9998,351.2932,265.2187,94.8633,2.0959e-05,2.308e-05,0.0,0 STARLINK-5823,1 55786U 23028AX  23121.05104766  .00002308  00000-0  20959-4 0  9996,2 55786  69.9998 351.2932 0003283 265.2187  94.8633 15.69919213  9823,6737.265,91.724,361.342,356.918,0.0
55786.0,STARLINK-5823,PAYLOAD,2023-05-01 18:02:46,15.69931978,0.0003945,69.9993,349.3239,264.2714,95.8032,1.5929e-05,1.703e-05,0.0,0 STARLINK-5823,1 55786U 23028AX  23121.75192417  .00001703  00000-0  15929-4 0  9992,2 55786  69.9993 349.3239 0003945 264.2714  95.8032 15.69931978  9934,6737.229,91.724,361.751,356.436,0.0
55786.0,STARLINK-5823,PAYLOAD,2023-05-01 22:38:01,15.69932942,0.0003928,69.9993,348.7866,262.4006,97.6743,1.7748e-05,1.922e-05,0.0,0 STARLINK-5823,1 55786U 23028AX  23121.94307329  .00001922  00000-0  17748-4 0  9997,2 55786  69.9993 348.7866 0003928 262.4006  97.6743 15.69932942  9951,6737.226,91.724,361.737,356.444,0.0
55786.0,STARLINK-5823,PAYLOAD,2023-05-02 01:41:31,15.69936035,0.0003839,69.9992,348.4259,266.5792,93.4965,2.1088e-05,2.325e-05,0.0,0 STARLINK-5823,1 55786U 23028AX  23122.07050541  .00002325  00000-0  21088-4 0  9993,2 55786  69.9992 348.4259 0003839 266.5792  93.4965 15.69936035  9981,6737.217,91.723,361.668,356.496,0.0
55786.0,STARLINK-5823,PAYLOAD,2023-05-02 18:30:48,15.69924284,0.000304,69.9997,346.4546,264.6704,95.4145,2.2869e-05,2.538e-05,0.0,0 STARLINK-5823,1 55786U 23028AX  23122.77139711  .00002538  00000-0  22869-4 0  9991,2 55786  69.9997 346.4546 0003040 264.6704  95.4145 15.69924284 10087,6737.251,91.724,361.164,357.067,0.0
55786.0,STARLINK-5823,PAYLOAD,2023-05-02 21:34:18,15.69929163,0.0003343,69.9993,346.0962,267.2001,92.8813,3.1142e-05,3.534e-05,0.0,0 STARLINK-5823,1 55786U 23028AX  23122.89882638  .00003534  00000-0  31142-4 0  9998,2 55786  69.9993 346.0962 0003343 267.2001  92.8813 15.69929163 10114,6737.237,91.724,361.354,356.849,0.0
55786.0,STARLINK-5823,PAYLOAD,2023-05-03 00:37:49,15.69908787,0.0003316,69.9991,345.7406,259.3212,100.761,-2.124e-05,-2.764e-05,0.0,0 STARLINK-5823,1 55786U 23028AX  23123.02626988 -.00002764  00000-0 -21240-4 0  9992,2 55786  69.9991 345.7406 0003316 259.3212 100.7610 15.69908787 10121,6737.295,91.725,361.394,356.926,0.0
55786.0,STARLINK-5823,PAYLOAD,2023-05-03 08:16:35,15.69917707,0.000357,69.9987,344.8432,262.4559,97.6231,-7.6601e-06,-1.134e-05,0.0,0 STARLINK-5823,1 55786U 23028AX  23123.34484985 -.00001134  00000-0 -76601-5 0  9998,2 55786  69.9987 344.8432 0003570 262.4559  97.6231 15.69917707 10187,6737.269,91.725,361.54,356.729,0.0
55786.0,STARLINK-5823,PAYLOAD,2023-05-03 17:27:05,15.69923666,0.0003928,70.0012,343.771,267.2467,92.828,2.4228e-05,2.701e-05,0.0,0 STARLINK-5823,1 55786U 23028AX  23123.72714671  .00002701  00000-0  24228-4 0  9994,2 55786  70.0012 343.7710 0003928 267.2467  92.8280 15.69923666 10243,6737.252,91.724,361.764,356.471,0.0
55786.0,STARLINK-5823,PAYLOAD,2023-05-04 01:05:50,15.69935407,0.0003395,70.001,342.875,269.9847,90.0959,4.312e-05,4.978e-05,0.0,0 STARLINK-5823,1 55786U 23028AX  23124.04572560  .00004978  00000-0  43120-4 0  9999,2 55786  70.0010 342.8750 0003395 269.9847  90.0959 15.69935407 10287,6737.219,91.724,361.371,356.797,0.0
55786.0,STARLINK-5823,PAYLOAD,2023-05-04 13:19:51,15.69934856,0.0003445,70.0008,341.4421,269.5192,90.5609,3.326e-05,3.79e-05,0.0,0 STARLINK-5823,1 55786U 23028AX  23124.55545673  .00003790  00000-0  33260-4 0  9995,2 55786  70.0008 341.4421 0003445 269.5192  90.5609 15.69934856 10373,6737.22,91.724,361.406,356.764,0.0
55786.0,STARLINK-5823,PAYLOAD,2023-05-04 20:58:37,15.69908548,0.0003559,69.9998,340.5459,266.997,93.0818,-3.5626e-05,-4.492e-05,0.0,0 STARLINK-5823,1 55786U 23028AX  23124.87405032 -.00004492  00000-0 -35626-4 0  9994,2 55786  69.9998 340.5459 0003559 266.9970  93.0818 15.69908548 10425,6737.296,91.725,361.558,356.763,0.0
55786.0,STARLINK-5823,PAYLOAD,2023-05-04 22:30:23,15.69908656,0.0003421,69.9999,340.3669,266.8377,93.2427,-3.4776e-05,-4.389e-05,0.0,0 STARLINK-5823,1 55786U 23028AX  23124.93776750 -.00004389  00000-0 -34776-4 0  9999,2 55786  69.9999 340.3669 0003421 266.8377  93.2427 15.69908656 10423,6737.295,91.725,361.465,356.856,0.0
55786.0,STARLINK-5823,PAYLOAD,2023-05-05 16:51:24,15.69933457,0.0003594,70.0003,338.2157,269.6585,90.4199,4.2146e-05,4.86e-05,0.0,0 STARLINK-5823,1 55786U 23028AX  23125.70236193  .00004860  00000-0  42146-4 0  9999,2 55786  70.0003 338.2157 0003594 269.6585  90.4199 15.69933457 10559,6737.224,91.724,361.511,356.668,0.0
55786.0,STARLINK-5823,PAYLOAD,2023-05-05 22:58:24,15.69946876,0.000362,70.0,337.499,268.9846,91.0935,0.00011778,0.00013987,0.0,0 STARLINK-5823,1 55786U 23028AX  23125.95722581  .00013987  00000-0  11778-3 0  9993,2 55786  70.0000 337.4990 0003620 268.9846  91.0935 15.69946876 10581,6737.186,91.723,361.49,356.612,0.0
55786.0,STARLINK-5823,PAYLOAD,2023-05-06 15:47:40,15.69939537,0.0003814,70.001,335.5287,272.5483,87.5276,8.4118e-05,9.921e-05,0.0,0 STARLINK-5823,1 55786U 23028AX  23126.65811124  .00009921  00000-0  84118-4 0  9995,2 55786  70.0010 335.5287 0003814 272.5483  87.5276 15.69939537 10701,6737.207,91.723,361.642,356.502,0.0
